{"type": "FeatureCollection", "features": [ {"type": "Feature", "properties": {"norad_id": 66776, "name": "TRANSPORTER-15 DQ", "group": "last-30-days", "lat": 59.383632099049755, "lon": 54.58638301424085, "alt_km": 502.4042309144288, "timestamp": "2025-12-21T16:47:53.449918+00:00", "meta": {"OBJECT_NAME": "TRANSPORTER-15 DQ", "OBJECT_ID": "2025-276DQ", "EPOCH": "2025-12-21T08:37:38.417088", "MEAN_MOTION": 15.18663157, "ECCENTRICITY": 0.0002796, "INCLINATION": 97.4386, "RA_OF_ASC_NODE": 67.0062, "ARG_OF_PERICENTER": 86.7676, "MEAN_ANOMALY": 273.3879, "EPHEMERIS_TYPE": 0, "CLASSIFICATION_TYPE": "U", "NORAD_CAT_ID": 66776, "ELEMENT_SET_NO": 999, "REV_AT_EPOCH": 343, "BSTAR": 0.00044765, "MEAN_MOTION_DOT": 9.215e-05, "MEAN_MOTION_DDOT": 0}, "tle": {"line1": "1 66776U 25276DQ  25355.35947242  .00009215  00000+0  44765-3 0  9995", "line2": "2 66776  97.4386  67.0062 0002796  86.7676 273.3879 15.18663157  3438"}}, "geometry": {"type": "Point", "coordinates": [54.58638301424085, 59.383632099049755]}}, {"type": "Feature", "properties": {"norad_id": 66777, "name": "TRANSPORTER-15 DR", "group": "last-30-days", "lat": 70.44142509681336, "lon": 45.76573188245611, "alt_km": 500.70956436855977, "timestamp": "2025-12-21T16:47:53.449931+00:00", "meta": {"OBJECT_NAME": "TRANSPORTER-15 DR", "OBJECT_ID": "2025-276DR", "EPOCH": "2025-12-21T10:09:30.604032", "MEAN_MOTION": 15.18878333, "ECCENTRICITY": 0.0003392, "INCLINATION": 97.4476, "RA_OF_ASC_NODE": 67.0983, "ARG_OF_PERICENTER": 115.9961, "MEAN_ANOMALY": 244.1623, "EPHEMERIS_TYPE": 0, "CLASSIFICATION_TYPE": "U", "NORAD_CAT_ID": 66777, "ELEMENT_SET_NO": 999, "REV_AT_EPOCH": 344, "BSTAR": 0.00050407, "MEAN_MOTION_DOT": 0.00010451, "MEAN_MOTION_DDOT": 0}, "tle": {"line1": "1 66777U 25276DR  25355.42327088  .00010451  00000+0  50407-3 0  9998", "line2": "2 66777  97.4476  67.0983 0003392 115.9961 244.1623 15.18878333  3444"}}, "geometry": {"type": "Point", "coordinates": [45.76573188245611, 70.44142509681336]}}, {"type": "Feature", "properties": {"norad_id": 66791, "name": "STARLINK-35867", "group": "last-30-days", "lat": 42.58214138985424, "lon": -62.60541259678836, "alt_km": 390.13693335327844, "timestamp": "2025-12-21T16:47:53.449943+00:00", "meta": {"OBJECT_NAME": "STARLINK-35867", "OBJECT_ID": "2025-278A", "EPOCH": "2025-12-21T12:00:02.000160", "MEAN_MOTION": 15.58088852, "ECCENTRICITY": 0.0001685, "INCLINATION": 42.9991, "RA_OF_ASC_NODE": 199.0529, "ARG_OF_PERICENTER": 263.058, "MEAN_ANOMALY": 151.6349, "EPHEMERIS_TYPE": 0, "CLASSIFICATION_TYPE": "U", "NORAD_CAT_ID": 66791, "ELEMENT_SET_NO": 999, "REV_AT_EPOCH": 436, "BSTAR": -0.029261, "MEAN_MOTION_DOT": -0.01984881, "MEAN_MOTION_DDOT": 0}, "tle": {"line1": "1 66791U 25278A   25355.50002315 -.01984881  00000+0 -29261-1 0  9990", "line2": "2 66791  42.9991 199.0529 0001685 263.0580 151.6349 15.58088852  4366"}}, "geometry": {"type": "Point", "coordinates": [-62.60541259678836, 42.58214138985424]}}, {"type": "Feature", "properties": {"norad_id": 66792, "name": "STARLINK-35990", "group": "last-30-days", "lat": 42.337528964966396, "lon": -60.03290426617346, "alt_km": 390.1805428265934, "timestamp": "2025-12-21T16:47:53.449954+00:00", "meta": {"OBJECT_NAME": "STARLINK-35990", "OBJECT_ID": "2025-278B", "EPOCH": "2025-12-21T12:00:02.000160", "MEAN_MOTION": 15.58087097, "ECCENTRICITY": 0.0001725, "INCLINATION": 42.9996, "RA_OF_ASC_NODE": 199.0488, "ARG_OF_PERICENTER": 261.7786, "MEAN_ANOMALY": 154.8299, "EPHEMERIS_TYPE": 0, "CLASSIFICATION_TYPE": "U", "NORAD_CAT_ID": 66792, "ELEMENT_SET_NO": 999, "REV_AT_EPOCH": 436, "BSTAR": -0.029187, "MEAN_MOTION_DOT": -0.0198041, "MEAN_MOTION_DDOT": 0}, "tle": {"line1": "1 66792U 25278B   25355.50002315 -.01980410  00000+0 -29187-1 0  9992", "line2": "2 66792  42.9996 199.0488 0001725 261.7786 154.8299 15.58087097  4363"}}, "geometry": {"type": "Point", "coordinates": [-60.03290426617346, 42.337528964966396]}}, {"type": "Feature", "properties": {"norad_id": 66793, "name": "STARLINK-36051", "group": "last-30-days", "lat": 41.67533441253458, "lon": -54.95035686758845, "alt_km": 390.2107747248401, "timestamp": "2025-12-21T16:47:53.449963+00:00", "meta": {"OBJECT_NAME": "STARLINK-36051", "OBJECT_ID": "2025-278C", "EPOCH": "2025-12-21T12:00:02.000160", "MEAN_MOTION": 15.58087973, "ECCENTRICITY": 0.0001652, "INCLINATION": 42.9996, "RA_OF_ASC_NODE": 199.0394, "ARG_OF_PERICENTER": 261.9013, "MEAN_ANOMALY": 158.5435, "EPHEMERIS_TYPE": 0, "CLASSIFICATION_TYPE": "U", "NORAD_CAT_ID": 66793, "ELEMENT_SET_NO": 999, "REV_AT_EPOCH": 426, "BSTAR": -0.029242, "MEAN_MOTION_DOT": -0.01983659, "MEAN_MOTION_DDOT": 0}, "tle": {"line1": "1 66793U 25278C   25355.50002315 -.01983659  00000+0 -29242-1 0  9993", "line2": "2 66793  42.9996 199.0394 0001652 261.9013 158.5435 15.58087973  4269"}}, "geometry": {"type": "Point", "coordinates": [-54.95035686758845, 41.67533441253458]}}, {"type": "Feature", "properties": {"norad_id": 66794, "name": "STARLINK-36062", "group": "last-30-days", "lat": 42.033825131621334, "lon": -57.477186585391145, "alt_km": 390.20387662571466, "timestamp": "2025-12-21T16:47:53.449973+00:00", "meta": {"OBJECT_NAME": "STARLINK-36062", "OBJECT_ID": "2025-278D", "EPOCH": "2025-12-21T12:00:02.000160", "MEAN_MOTION": 15.58088945, "ECCENTRICITY": 0.0001683, "INCLINATION": 42.9991, "RA_OF_ASC_NODE": 199.0434, "ARG_OF_PERICENTER": 264.145, "MEAN_ANOMALY": 154.3817, "EPHEMERIS_TYPE": 0, "CLASSIFICATION_TYPE": "U", "NORAD_CAT_ID": 66794, "ELEMENT_SET_NO": 999, "REV_AT_EPOCH": 436, "BSTAR": -0.029255, "MEAN_MOTION_DOT": -0.01984541, "MEAN_MOTION_DDOT": 0}, "tle": {"line1": "1 66794U 25278D   25355.50002315 -.01984541  00000+0 -29255-1 0  9999", "line2": "2 66794  42.9991 199.0434 0001683 264.1450 154.3817 15.58088945  4363"}}, "geometry": {"type": "Point", "coordinates": [-57.477186585391145, 42.033825131621334]}}, {"type": "Feature", "properties": {"norad_id": 66795, "name": "STARLINK-36047", "group": "last-30-days", "lat": 41.261373973536905, "lon": -52.45443578538074, "alt_km": 390.2901876895021, "timestamp": "2025-12-21T16:47:53.449983+00:00", "meta": {"OBJECT_NAME": "STARLINK-36047", "OBJECT_ID": "2025-278E", "EPOCH": "2025-12-21T12:00:02.000160", "MEAN_MOTION": 15.58090465, "ECCENTRICITY": 0.0001702, "INCLINATION": 42.9995, "RA_OF_ASC_NODE": 199.0347, "ARG_OF_PERICENTER": 262.1287, "MEAN_ANOMALY": 160.2318, "EPHEMERIS_TYPE": 0, "CLASSIFICATION_TYPE": "U", "NORAD_CAT_ID": 66795, "ELEMENT_SET_NO": 999, "REV_AT_EPOCH": 426, "BSTAR": -0.029282, "MEAN_MOTION_DOT": -0.01986229, "MEAN_MOTION_DDOT": 0}, "tle": {"line1": "1 66795U 25278E   25355.50002315 -.01986229  00000+0 -29282-1 0  9995", "line2": "2 66795  42.9995 199.0347 0001702 262.1287 160.2318 15.58090465  4260"}}, "geometry": {"type": "Point", "coordinates": [-52.45443578538074, 41.261373973536905]}}, {"type": "Feature", "properties": {"norad_id": 66796, "name": "STARLINK-35964", "group": "last-30-days", "lat": 42.96871013525925, "lon": -74.47548055472821, "alt_km": 320.93672031602, "timestamp": "2025-12-21T16:47:53.449993+00:00", "meta": {"OBJECT_NAME": "STARLINK-35964", "OBJECT_ID": "2025-278F", "EPOCH": "2025-12-21T11:52:23.566944", "MEAN_MOTION": 15.8110259, "ECCENTRICITY": 0.0001627, "INCLINATION": 42.991, "RA_OF_ASC_NODE": 197.329, "ARG_OF_PERICENTER": 242.7833, "MEAN_ANOMALY": 117.2872, "EPHEMERIS_TYPE": 0, "CLASSIFICATION_TYPE": "U", "NORAD_CAT_ID": 66796, "ELEMENT_SET_NO": 999, "REV_AT_EPOCH": 323, "BSTAR": 0.0022149, "MEAN_MOTION_DOT": 0.00471767, "MEAN_MOTION_DDOT": 0}, "tle": {"line1": "1 66796U 25278F   25355.49471721  .00471767  00000+0  22149-2 0  9994", "line2": "2 66796  42.9910 197.3290 0001627 242.7833 117.2872 15.81102590  3235"}}, "geometry": {"type": "Point", "coordinates": [-74.47548055472821, 42.96871013525925]}}, {"type": "Feature", "properties": {"norad_id": 66797, "name": "STARLINK-36099", "group": "last-30-days", "lat": 40.27501617615703, "lon": -47.5674222517405, "alt_km": 390.41762971559547, "timestamp": "2025-12-21T16:47:53.450005+00:00", "meta": {"OBJECT_NAME": "STARLINK-36099", "OBJECT_ID": "2025-278G", "EPOCH": "2025-12-21T12:00:02.000160", "MEAN_MOTION": 15.58088544, "ECCENTRICITY": 0.0001746, "INCLINATION": 42.9991, "RA_OF_ASC_NODE": 199.0253, "ARG_OF_PERICENTER": 260.4151, "MEAN_ANOMALY": 165.7797, "EPHEMERIS_TYPE": 0, "CLASSIFICATION_TYPE": "U", "NORAD_CAT_ID": 66797, "ELEMENT_SET_NO": 999, "REV_AT_EPOCH": 442, "BSTAR": -0.029221, "MEAN_MOTION_DOT": -0.01982537, "MEAN_MOTION_DDOT": 0}, "tle": {"line1": "1 66797U 25278G   25355.50002315 -.01982537  00000+0 -29221-1 0  9998", "line2": "2 66797  42.9991 199.0253 0001746 260.4151 165.7797 15.58088544  4427"}}, "geometry": {"type": "Point", "coordinates": [-47.5674222517405, 40.27501617615703]}}, {"type": "Feature", "properties": {"norad_id": 66798, "name": "STARLINK-36041", "group": "last-30-days", "lat": 39.70597318932815, "lon": -45.18113501043453, "alt_km": 390.4261563680102, "timestamp": "2025-12-21T16:47:53.450018+00:00", "meta": {"OBJECT_NAME": "STARLINK-36041", "OBJECT_ID": "2025-278H", "EPOCH": "2025-12-21T12:00:02.000160", "MEAN_MOTION": 15.58087095, "ECCENTRICITY": 0.0001622, "INCLINATION": 42.9991, "RA_OF_ASC_NODE": 199.0197, "ARG_OF_PERICENTER": 261.9791, "MEAN_ANOMALY": 166.1317, "EPHEMERIS_TYPE": 0, "CLASSIFICATION_TYPE": "U", "NORAD_CAT_ID": 66798, "ELEMENT_SET_NO": 999, "REV_AT_EPOCH": 420, "BSTAR": -0.029158, "MEAN_MOTION_DOT": -0.01978585, "MEAN_MOTION_DDOT": 0}, "tle": {"line1": "1 66798U 25278H   25355.50002315 -.01978585  00000+0 -29158-1 0  9996", "line2": "2 66798  42.9991 199.0197 0001622 261.9791 166.1317 15.58087095  4203"}}, "geometry": {"type": "Point", "coordinates": [-45.18113501043453, 39.70597318932815]}}]}